[{"OBJECT_NAME":"STARLINK-2627","OBJECT_ID":"2021-044BB","EPOCH":"2026-03-09T23:19:18.698016","MEAN_MOTION":15.29341242,"ECCENTRICITY":0.0001376,"INCLINATION":53.1564,"RA_OF_ASC_NODE":63.6251,"ARG_OF_PERICENTER":81.5961,"MEAN_ANOMALY":278.5195,"EPHEMERIS_TYPE":0,"CLASSIFICATION_TYPE":"U","NORAD_CAT_ID":48687,"ELEMENT_SET_NO":999,"REV_AT_EPOCH":26454,"BSTAR":2.6251083e-5,"MEAN_MOTION_DOT":4.01e-6,"MEAN_MOTION_DDOT":0},{"OBJECT_NAME":"THORAD AGENA D DEB","OBJECT_ID":"1969-082CP","EPOCH":"2026-03-09T22:51:31.947840","MEAN_MOTION":15.31252047,"ECCENTRICITY":0.00108961,"INCLINATION":69.8927,"RA_OF_ASC_NODE":265.8646,"ARG_OF_PERICENTER":335.0972,"MEAN_ANOMALY":24.9676,"EPHEMERIS_TYPE":0,"CLASSIFICATION_TYPE":"U","NORAD_CAT_ID":4133,"ELEMENT_SET_NO":999,"REV_AT_EPOCH":97550,"BSTAR":0.0018489552,"MEAN_MOTION_DOT":0.00056347,"MEAN_MOTION_DDOT":0}]
